{
  "links" : {
    "next" : "https://api.nasa.gov/neo/rest/v1/feed?start_date=2005-12-16&end_date=2005-12-16&detailed=true&api_key=t0TVs3DtDT2H8Oy2Zy8m2eVrNsAVKAexjcZXUckd",
    "prev" : "https://api.nasa.gov/neo/rest/v1/feed?start_date=2005-12-14&end_date=2005-12-14&detailed=true&api_key=t0TVs3DtDT2H8Oy2Zy8m2eVrNsAVKAexjcZXUckd",
    "self" : "https://api.nasa.gov/neo/rest/v1/feed?start_date=2005-12-15&end_date=2005-12-15&detailed=true&api_key=t0TVs3DtDT2H8Oy2Zy8m2eVrNsAVKAexjcZXUckd"
  },
  "element_count" : 5,
  "near_earth_objects" : {
    "2005-12-15" : [ {
      "links" : {
        "self" : "https://api.nasa.gov/neo/rest/v1/neo/3102683?api_key=t0TVs3DtDT2H8Oy2Zy8m2eVrNsAVKAexjcZXUckd"
      },
      "neo_reference_id" : "3102683",
      "name" : "(2001 XX4)",
      "nasa_jpl_url" : "http://ssd.jpl.nasa.gov/sbdb.cgi?sstr=3102683",
      "absolute_magnitude_h" : 22.1,
      "estimated_diameter" : {
        "kilometers" : {
          "estimated_diameter_min" : 0.1010543415,
          "estimated_diameter_max" : 0.2259643771
        },
        "meters" : {
          "estimated_diameter_min" : 101.054341542,
          "estimated_diameter_max" : 225.9643771094
        },
        "miles" : {
          "estimated_diameter_min" : 0.0627922373,
          "estimated_diameter_max" : 0.140407711
        },
        "feet" : {
          "estimated_diameter_min" : 331.5431259047,
          "estimated_diameter_max" : 741.3529669956
        }
      },
      "is_potentially_hazardous_asteroid" : true,
      "close_approach_data" : [ {
        "close_approach_date" : "2005-12-15",
        "epoch_date_close_approach" : 1134633600000,
        "relative_velocity" : {
          "kilometers_per_second" : "24.5103230511",
          "kilometers_per_hour" : "88237.1629838779",
          "miles_per_hour" : "54827.1416329546"
        },
        "miss_distance" : {
          "astronomical" : "0.2142946247",
          "lunar" : "83.3606109619",
          "kilometers" : "32058020",
          "miles" : "19919930"
        },
        "orbiting_body" : "Earth"
      } ],
      "orbital_data" : {
        "orbit_id" : "12",
        "orbit_determination_date" : "2017-04-06 09:15:45",
        "orbit_uncertainty" : "1",
        "minimum_orbit_intersection" : ".0113586",
        "jupiter_tisserand_invariant" : "5.900",
        "epoch_osculation" : "2458000.5",
        "eccentricity" : ".5567337012305469",
        "semi_major_axis" : "1.006605851989085",
        "inclination" : ".8481960586753917",
        "ascending_node_longitude" : "127.0622179919935",
        "orbital_period" : "368.882118331136",
        "perihelion_distance" : ".4461944503308738",
        "perihelion_argument" : "186.8452503669185",
        "aphelion_distance" : "1.567017253647297",
        "perihelion_time" : "2458094.414798558509",
        "mean_anomaly" : "268.3465264350019",
        "mean_motion" : ".9759215264450343",
        "equinox" : "J2000"
      }
    }, {
      "links" : {
        "self" : "https://api.nasa.gov/neo/rest/v1/neo/3307228?api_key=t0TVs3DtDT2H8Oy2Zy8m2eVrNsAVKAexjcZXUckd"
      },
      "neo_reference_id" : "3307228",
      "name" : "(2005 XT77)",
      "nasa_jpl_url" : "http://ssd.jpl.nasa.gov/sbdb.cgi?sstr=3307228",
      "absolute_magnitude_h" : 21.2,
      "estimated_diameter" : {
        "kilometers" : {
          "estimated_diameter_min" : 0.1529519353,
          "estimated_diameter_max" : 0.3420109247
        },
        "meters" : {
          "estimated_diameter_min" : 152.9519353442,
          "estimated_diameter_max" : 342.0109247198
        },
        "miles" : {
          "estimated_diameter_min" : 0.095039897,
          "estimated_diameter_max" : 0.2125156703
        },
        "feet" : {
          "estimated_diameter_min" : 501.8108275547,
          "estimated_diameter_max" : 1122.0831222578
        }
      },
      "is_potentially_hazardous_asteroid" : true,
      "close_approach_data" : [ {
        "close_approach_date" : "2005-12-15",
        "epoch_date_close_approach" : 1134633600000,
        "relative_velocity" : {
          "kilometers_per_second" : "9.7750803318",
          "kilometers_per_hour" : "35190.2891943068",
          "miles_per_hour" : "21865.8771940958"
        },
        "miss_distance" : {
          "astronomical" : "0.0709370153",
          "lunar" : "27.594499588",
          "kilometers" : "10612027",
          "miles" : "6594007.5"
        },
        "orbiting_body" : "Earth"
      } ],
      "orbital_data" : {
        "orbit_id" : "26",
        "orbit_determination_date" : "2017-04-06 09:09:38",
        "orbit_uncertainty" : "0",
        "minimum_orbit_intersection" : ".0278008",
        "jupiter_tisserand_invariant" : "6.927",
        "epoch_osculation" : "2458000.5",
        "eccentricity" : ".2662892490503571",
        "semi_major_axis" : ".8410412387622234",
        "inclination" : "17.21951849748949",
        "ascending_node_longitude" : "84.81940399453119",
        "orbital_period" : "281.7243356844349",
        "perihelion_distance" : ".6170809988718489",
        "perihelion_argument" : "149.9371528936231",
        "aphelion_distance" : "1.065001478652598",
        "perihelion_time" : "2458052.316455126139",
        "mean_anomaly" : "293.7866081036588",
        "mean_motion" : "1.277844880263532",
        "equinox" : "J2000"
      }
    } ]
  }
}